GSAT0206 (GALILEO 10)   
1 40890U 15045B   26115.66468946 -.00000038  00000+0  00000+0 0  9990
2 40890  54.9612 223.0540 0002188  38.1287 321.8788  1.70473961 66146
BEIDOU-3S IGSO-2S (C56) 
1 40938U 15053A   26116.85580831 -.00000177  00000+0  00000+0 0  9996
2 40938  49.3035 259.3896 0063652 190.0802 170.2721  1.00271610 38845
GPS BIIF-11 (PRN 10)    
1 41019U 15062A   26115.92662522 -.00000097  00000+0  00000+0 0  9993
2 41019  56.9265  32.8248 0111250 231.5206 127.4823  2.00566971 76787
GSAT-15 (GAGAN/PRN 139) 
1 41028U 15065A   26116.94261192 -.00000269  00000+0  00000+0 0  9998
2 41028   0.0682 257.0638 0003727 145.1368 245.5890  1.00271973 38285
GSAT0209 (GALILEO 12)   
1 41174U 15079A   26115.24610591  .00000046  00000+0  00000+0 0  9990
2 41174  55.7962 102.7123 0005679 329.0159  30.9454  1.70474059 63871
GSAT0208 (GALILEO 11)   
1 41175U 15079B   26116.05295675  .00000046  00000+0  00000+0 0  9993
2 41175  55.7944 102.6873 0005050 330.1145  29.8515  1.70473954 64301
IRNSS-1E                
1 41241U 16003A   26111.89127155 -.00000302  00000+0  00000+0 0  9995
2 41241  33.1155  60.5610 0017245 183.4571  38.5260  1.00277854 37512
GPS BIIF-12 (PRN 32)    
1 41328U 16007A   26116.01441263  .00000035  00000+0  00000+0 0  9995
2 41328  55.4924  91.5265 0096118 247.0858 111.8862  2.00554140 74791
COSMOS 2514 (751)       
1 41330U 16008A   26116.19734976 -.00000026  00000+0  00000+0 0  9995
2 41330  65.0524 314.7909 0009488 198.1735 161.8195  2.13102638 79510
BEIDOU-2 IGSO-6 (C13)   
1 41434U 16021A   26112.85559397 -.00000169  00000+0  00000+0 0  9994
2 41434  60.1522  38.5901 0055866 232.0601 343.5038  1.00270364 36923
IRNSS-1G                
1 41469U 16027A   26116.87620738 -.00000340  00000+0  00000+0 0  9993
2 41469   5.0697  98.6791 0005896 345.6173 215.6314  1.00275749 36668
GSAT0211 (GALILEO 14)   
1 41549U 16030A   26114.41727357 -.00000030  00000+0  00000+0 0  9995
2 41549  55.1119 223.1731 0002524 359.1559   0.8397  1.70474087 61750
GSAT0210 (GALILEO 13)   
1 41550U 16030B   26115.26112393 -.00000036  00000+0  00000+0 0  9995
2 41550  55.1104 223.1480 0002810 225.6811 134.2889  1.70474037 61767
BEIDOU-2 G7 (C03)       
1 41586U 16037A   26116.93260023 -.00000362  00000+0  00000+0 0  9992
2 41586   1.5954  68.8178 0007735 354.5704 237.7044  1.00265175  6378
EUTELSAT 117 WEST B (W*)
1 41589U 16038B   26116.89856748 -.00000023  00000+0  00000+0 0  9990
2 41589   0.0123  95.7003 0000042  22.0292 303.6604  1.00271972 36147
GSAT0207 (GALILEO 15)   
1 41859U 16069A   26116.12593912  .00000045  00000+0  00000+0 0  9994
2 41859  55.4667 102.5250 0005924 317.5272  42.4215  1.70474012 58517
GSAT0212 (GALILEO 16)   
1 41860U 16069B   26115.97942788  .00000045  00000+0  00000+0 0  9997
2 41860  55.4638 102.5243 0004656 340.7517  19.2254  1.70474171 58768
